[{"OBJECT_NAME":"SORAYA","OBJECT_ID":"2024-015A","EPOCH":"2026-03-09T23:47:27.347136","MEAN_MOTION":14.4267567,"ECCENTRICITY":0.00145543,"INCLINATION":64.5174,"RA_OF_ASC_NODE":9.0228,"ARG_OF_PERICENTER":231.7358,"MEAN_ANOMALY":128.2419,"EPHEMERIS_TYPE":0,"CLASSIFICATION_TYPE":"U","NORAD_CAT_ID":58817,"ELEMENT_SET_NO":999,"REV_AT_EPOCH":11246,"BSTAR":9.0214372e-5,"MEAN_MOTION_DOT":1.94e-6,"MEAN_MOTION_DDOT":0},{"OBJECT_NAME":"THORAD DELTA 1 DEB","OBJECT_ID":"1974-089BG","EPOCH":"2026-03-09T08:54:32.650272","MEAN_MOTION":13.851226,"ECCENTRICITY":0.03088786,"INCLINATION":102.0633,"RA_OF_ASC_NODE":213.5136,"ARG_OF_PERICENTER":328.3994,"MEAN_ANOMALY":29.8924,"EPHEMERIS_TYPE":0,"CLASSIFICATION_TYPE":"U","NORAD_CAT_ID":8299,"ELEMENT_SET_NO":999,"REV_AT_EPOCH":45964,"BSTAR":0.0011339853,"MEAN_MOTION_DOT":1.796e-5,"MEAN_MOTION_DDOT":0}]
